      2.10          N: GNSS NAV DATA                        RINEX VERSION / TYPE
fic2rin                                 04/04/2021 00:17:33 PGM / RUN BY / DATE
                                                            END OF HEADER
27 21  4  3 12  0  0.0-1.059691421688e-04-6.934897101019e-12 0.000000000000e+00
    2.400000000000e+01 2.340625000000e+01 4.131600669180e-09-1.840707333969e+00
    1.220032572746e-06 9.337814291939e-03 2.706423401833e-06 5.153680873871e+03
    5.616000000000e+05-5.587935447693e-09 2.788454362888e+00-1.750886440277e-07
    9.764678602744e-01 3.365937500000e+02 5.994367701818e-01-8.064621638148e-09
    3.464430021702e-11 1.000000000000e+00 2.151000000000e+03 0.000000000000e+00
    2.400000000000e+00 0.000000000000e+00 1.862645149231e-09 2.400000000000e+01
    5.544000000000e+05 4.000000000000e+00
30 21  4  3 12  0  0.0-4.076496697962e-04-5.343281372916e-12 0.000000000000e+00
    4.300000000000e+01 2.396875000000e+01 5.293434778520e-09 1.558574270909e+00
    1.464039087296e-06 5.026443861425e-03 8.845701813698e-06 5.153725229263e+03
    5.616000000000e+05-1.303851604462e-08 7.205841191752e-01 1.024454832077e-07
    9.373143456705e-01 1.989687500000e+02-2.819937171874e+00-8.345347617226e-09
   -4.010881355022e-10 1.000000000000e+00 2.151000000000e+03 0.000000000000e+00
    2.400000000000e+00 0.000000000000e+00 3.725290298462e-09 4.300000000000e+01
    5.544000000000e+05 4.000000000000e+00
19 21  4  3 12  0  0.0-1.784088090062e-05 5.002220859751e-12 0.000000000000e+00
    2.400000000000e+01 1.003125000000e+01 4.102670892710e-09 6.648641296426e-01
    3.464519977570e-07 9.154766332358e-03 4.041939973831e-06 5.153626770020e+03
    5.616000000000e+05-1.303851604462e-08 2.894005593441e+00-1.285225152969e-07
    9.811555237858e-01 3.185937500000e+02 1.801794296765e+00-8.197841473003e-09
   -1.464346710204e-10 1.000000000000e+00 2.151000000000e+03 0.000000000000e+00
    2.400000000000e+00 0.000000000000e+00-1.583248376846e-08 2.400000000000e+01
    5.544000000000e+05 4.000000000000e+00
28 21  4  3 12  0  0.0 5.924412980676e-04-5.684341886081e-12 0.000000000000e+00
    2.400000000000e+01 8.215625000000e+01 4.314465429089e-09-1.087863540717e+00
    4.384666681290e-06 1.775600051042e-02 7.562339305878e-06 5.153669960022e+03
    5.616000000000e+05-3.241002559662e-07 1.835235824321e+00 6.519258022308e-08
    9.731725992650e-01 2.438437500000e+02-1.345347158286e+00-8.255701025942e-09
   -1.192906832215e-10 1.000000000000e+00 2.151000000000e+03 0.000000000000e+00
    3.400000000000e+00 0.000000000000e+00-1.117587089539e-08 2.400000000000e+01
    5.544000000000e+05 4.000000000000e+00
31 21  4  3 12  0  0.0-1.094066537917e-04-2.160049916711e-12 0.000000000000e+00
    9.000000000000e+01 3.315625000000e+01 4.794485423848e-09 1.138255958575e+00
    2.007931470871e-06 9.955792455003e-03 8.951872587204e-06 5.153760587692e+03
    5.616000000000e+05 6.332993507385e-08 7.194447649280e-01 1.043081283569e-07
    9.564196885933e-01 2.032500000000e+02 2.559734852717e-01-8.059621429869e-09
   -5.225217651289e-10 1.000000000000e+00 2.151000000000e+03 0.000000000000e+00
    2.400000000000e+00 0.000000000000e+00-1.303851604462e-08 9.000000000000e+01
    5.544000000000e+05 4.000000000000e+00
16 21  4  3 12  0  0.0-3.039310686290e-04-5.911715561524e-12 0.000000000000e+00
    5.500000000000e+01 1.062187500000e+02 4.128029091838e-09-9.092819401569e-01
    5.528330802917e-06 1.226423284970e-02 7.214024662971e-06 5.153678054810e+03
    5.616000000000e+05 2.328306436539e-07 1.831663774823e+00 1.508742570877e-07
    9.740950744441e-01 2.477812500000e+02 6.684192078287e-01-8.004261981068e-09
   -1.771502361613e-10 1.000000000000e+00 2.151000000000e+03 0.000000000000e+00
    2.400000000000e+00 0.000000000000e+00-1.024454832077e-08 5.500000000000e+01
    5.544000000000e+05 4.000000000000e+00
22 21  4  3 12  0  0.0-6.463490426540e-04 8.526512829121e-12 0.000000000000e+00
    7.000000000000e+01-6.668750000000e+01 4.911276002930e-09-2.817949907382e+00
   -3.354623913765e-06 7.069373503327e-03 8.594244718552e-06 5.153573806763e+03
    5.616000000000e+05 3.725290298462e-09-1.497511594832e+00 1.471489667892e-07
    9.339347386563e-01 1.935625000000e+02-1.007105547337e+00-8.103194673441e-09
    4.739483132782e-10 1.000000000000e+00 2.151000000000e+03 0.000000000000e+00
    2.400000000000e+00 0.000000000000e+00-1.816079020500e-08 7.000000000000e+01
    5.544000000000e+05 4.000000000000e+00
32 21  4  3 12  0  0.0 2.196757122874e-05 2.273736754432e-13 0.000000000000e+00
    6.900000000000e+01-8.687500000000e+00 4.979850287896e-09-1.095676308848e+00
   -3.296881914139e-07 4.800488008186e-03 7.256865501404e-06 5.153646398544e+03
    5.616000000000e+05 8.568167686462e-08-3.599425596810e-01 6.705522537231e-08
    9.574367136308e-01 2.368125000000e+02-2.399102651341e+00-8.069979004161e-09
    1.550064566411e-10 1.000000000000e+00 2.151000000000e+03 0.000000000000e+00
    2.400000000000e+00 0.000000000000e+00 4.656612873077e-10 6.900000000000e+01
    5.544000000000e+05 4.000000000000e+00
21 21  4  3 12  0  0.0 1.081717200577e-04 2.955857780762e-12 0.000000000000e+00
    3.800000000000e+01-8.146875000000e+01 4.455542734096e-09-1.644657486517e+00
   -3.671273589134e-06 2.419535047375e-02 6.010755896568e-06 5.153706754684e+03
    5.616000000000e+05-3.203749656677e-07-2.520343499817e+00 5.308538675308e-07
    9.567858365077e-01 2.657812500000e+02-1.161400902541e+00-8.285345117881e-09
    6.321691895271e-11 1.000000000000e+00 2.151000000000e+03 0.000000000000e+00
    2.400000000000e+00 0.000000000000e+00-1.024454832077e-08 3.800000000000e+01
    5.544000000000e+05 4.000000000000e+00
15 21  4  3 12  0  0.0-1.587243750691e-04 2.614797267597e-12 0.000000000000e+00
    7.800000000000e+01-3.406250000000e+00 5.568446233851e-09-2.762963420585e+00
   -4.675239324570e-07 1.308062078897e-02 7.100403308868e-06 5.153583913803e+03
    5.616000000000e+05 1.899898052216e-07-4.673510963976e-01-1.918524503708e-07
    9.290144419119e-01 2.241875000000e+02 9.747730726054e-01-8.280344909602e-09
    2.532248335450e-10 1.000000000000e+00 2.151000000000e+03 0.000000000000e+00
    2.400000000000e+00 0.000000000000e+00-1.071020960808e-08 7.800000000000e+01
    5.544000000000e+05 4.000000000000e+00
24 21  4  3 12  0  0.0 2.519227564335e-07-4.547473508865e-13 0.000000000000e+00
    9.500000000000e+01 2.181250000000e+01 5.164857994210e-09 2.629125779516e+00
    9.611248970032e-07 1.102497393731e-02 8.726492524147e-06 5.153738916397e+03
    5.616000000000e+05-1.117587089539e-07 6.252453909974e-01-1.210719347000e-07
    9.355190028644e-01 1.962812500000e+02 7.373360233593e-01-8.050692486514e-09
   -3.514432104489e-10 1.000000000000e+00 2.151000000000e+03 0.000000000000e+00
    3.400000000000e+00 0.000000000000e+00 2.793967723846e-09 9.500000000000e+01
    5.544000000000e+05 4.000000000000e+00
25 21  4  3 12  0  0.0 1.114220358431e-04 7.389644451905e-12 0.000000000000e+00
    7.100000000000e+01 9.162500000000e+01 4.519473968517e-09 6.244129979248e-01
    4.904344677925e-06 9.927618550137e-03 7.104128599167e-06 5.153649023056e+03
    5.616000000000e+05-1.154839992523e-07 1.740034645553e+00 8.754432201385e-08
    9.613397966213e-01 2.432500000000e+02 9.574864704005e-01-8.187483898711e-09
   -2.532248335450e-10 1.000000000000e+00 2.151000000000e+03 0.000000000000e+00
    2.400000000000e+00 0.000000000000e+00 5.587935447693e-09 7.100000000000e+01
    5.544000000000e+05 4.000000000000e+00
26 21  4  3 12  0  0.0 6.706360727549e-05 5.229594535194e-12 0.000000000000e+00
    6.200000000000e+01 1.037812500000e+02 4.844844664370e-09-5.156211302612e-02
    5.263835191727e-06 5.800333805382e-03 7.327646017075e-06 5.153787416458e+03
    5.616000000000e+05 5.587935447693e-08 1.698942615276e+00 3.166496753693e-08
    9.422945196519e-01 2.260312500000e+02 2.982321868648e-01-8.327132572782e-09
   -2.442958901901e-10 1.000000000000e+00 2.151000000000e+03 0.000000000000e+00
    2.400000000000e+00 0.000000000000e+00 6.984919309616e-09 6.200000000000e+01
    5.544000000000e+05 4.000000000000e+00
20 21  4  3 12  0  0.0 5.235550925136e-04-3.410605131648e-13 0.000000000000e+00
    7.800000000000e+01-5.321875000000e+01 4.954134931034e-09 1.836941942291e+00
   -2.870336174965e-06 6.029393756762e-03 9.080395102501e-06 5.151699377060e+03
    5.616000000000e+05-5.401670932770e-08-1.544002309231e+00 5.960464477539e-08
    9.372429947670e-01 1.900000000000e+02 3.018508443484e+00-8.183912321369e-09
    3.246563803842e-10 1.000000000000e+00 2.151000000000e+03 0.000000000000e+00
    2.400000000000e+00 0.000000000000e+00-8.381903171539e-09 7.800000000000e+01
    5.544000000000e+05 4.000000000000e+00
18 21  4  3 12  0  0.0 3.514946438372e-04 3.410605131648e-13 0.000000000000e+00
    1.910000000000e+02-9.028125000000e+01 4.217675683122e-09 2.469295829249e+00
   -4.662200808525e-06 1.259472803213e-03 6.321817636490e-06 5.153676568985e+03
    5.616000000000e+05-2.421438694000e-08-2.425549373616e+00 2.421438694000e-08
    9.675788525716e-01 2.597500000000e+02 2.977567863265e+00-8.027120076057e-09
    6.785996949726e-12 1.000000000000e+00 2.151000000000e+03 0.000000000000e+00
    2.400000000000e+00 0.000000000000e+00-8.381903171539e-09 1.910000000000e+02
    5.544000000000e+05 4.000000000000e+00
14 21  4  3 12  0  0.0 9.826663881540e-05-1.818989403546e-12 0.000000000000e+00
    9.900000000000e+01 8.228125000000e+01 4.580905098799e-09 1.566049732554e+00
    4.280358552933e-06 5.235790740699e-04 7.128342986107e-06 5.153750448227e+03
    5.616000000000e+05 7.450580596924e-09 1.786575874513e+00-2.607703208923e-08
    9.574943379739e-01 2.365937500000e+02 2.404801649138e+00-8.137481815924e-09
   -2.189376910622e-10 1.000000000000e+00 2.151000000000e+03 0.000000000000e+00
    2.400000000000e+00 0.000000000000e+00-7.916241884232e-09 8.670000000000e+02
    5.544000000000e+05 4.000000000000e+00
